[{"OBJECT_NAME":"COSMOS 2494 (SKRL-756 2)","OBJECT_ID":"2013-078B","EPOCH":"2026-03-09T22:07:38.657280","MEAN_MOTION":15.04216116,"ECCENTRICITY":0.00160459,"INCLINATION":82.4161,"RA_OF_ASC_NODE":348.0656,"ARG_OF_PERICENTER":176.5861,"MEAN_ANOMALY":183.5478,"EPHEMERIS_TYPE":0,"CLASSIFICATION_TYPE":"U","NORAD_CAT_ID":39491,"ELEMENT_SET_NO":999,"REV_AT_EPOCH":66388,"BSTAR":0.0003906904,"MEAN_MOTION_DOT":5.469e-5,"MEAN_MOTION_DDOT":0},{"OBJECT_NAME":"STARLINK-4362","OBJECT_ID":"2022-077A","EPOCH":"2026-03-09T23:25:33.150432","MEAN_MOTION":15.01261785,"ECCENTRICITY":0.00026308,"INCLINATION":97.6021,"RA_OF_ASC_NODE":250.5038,"ARG_OF_PERICENTER":62.7524,"MEAN_ANOMALY":297.3968,"EPHEMERIS_TYPE":0,"CLASSIFICATION_TYPE":"U","NORAD_CAT_ID":53043,"ELEMENT_SET_NO":999,"REV_AT_EPOCH":20096,"BSTAR":3.1779954e-5,"MEAN_MOTION_DOT":3.5e-6,"MEAN_MOTION_DDOT":0}]
